{"type": "FeatureCollection", "features": [ {"type": "Feature", "properties": {"norad_id": 66568, "name": "STARLINK-35803", "group": "last-30-days", "lat": -34.57386032972843, "lon": 75.89553381886576, "alt_km": 416.9150126393097, "timestamp": "2025-12-12T07:43:19.258044+00:00", "meta": {"OBJECT_NAME": "STARLINK-35803", "OBJECT_ID": "2025-268M", "EPOCH": "2025-12-11T20:00:01.999872", "MEAN_MOTION": 15.50524674, "ECCENTRICITY": 0.00017838, "INCLINATION": 43.0001, "RA_OF_ASC_NODE": 126.4486, "ARG_OF_PERICENTER": 285.08, "MEAN_ANOMALY": 169.1651, "EPHEMERIS_TYPE": 0, "CLASSIFICATION_TYPE": "U", "NORAD_CAT_ID": 66568, "ELEMENT_SET_NO": 999, "REV_AT_EPOCH": 452, "BSTAR": 0.00052589583, "MEAN_MOTION_DOT": 0.00030571, "MEAN_MOTION_DDOT": 0}, "tle": {"line1": "1 66568U 25268M   25345.83335648  .00030571  00000+0  52590-3 0  9992", "line2": "2 66568  43.0001 126.4486 0001783 285.0800 169.1651 15.50524674  4523"}}, "geometry": {"type": "Point", "coordinates": [75.89553381886576, -34.57386032972843]}}, {"type": "Feature", "properties": {"norad_id": 66569, "name": "STARLINK-35835", "group": "last-30-days", "lat": -33.67676979058923, "lon": 77.93858993410704, "alt_km": 416.9797086542394, "timestamp": "2025-12-12T07:43:19.258054+00:00", "meta": {"OBJECT_NAME": "STARLINK-35835", "OBJECT_ID": "2025-268N", "EPOCH": "2025-12-11T20:00:01.999872", "MEAN_MOTION": 15.50527545, "ECCENTRICITY": 0.00017639, "INCLINATION": 43.0001, "RA_OF_ASC_NODE": 126.4441, "ARG_OF_PERICENTER": 274.6667, "MEAN_ANOMALY": 181.4944, "EPHEMERIS_TYPE": 0, "CLASSIFICATION_TYPE": "U", "NORAD_CAT_ID": 66569, "ELEMENT_SET_NO": 999, "REV_AT_EPOCH": 452, "BSTAR": 0.00042873363, "MEAN_MOTION_DOT": 0.00024844, "MEAN_MOTION_DDOT": 0}, "tle": {"line1": "1 66569U 25268N   25345.83335648  .00024844  00000+0  42873-3 0  9992", "line2": "2 66569  43.0001 126.4441 0001763 274.6667 181.4944 15.50527545  4520"}}, "geometry": {"type": "Point", "coordinates": [77.93858993410704, -33.67676979058923]}}, {"type": "Feature", "properties": {"norad_id": 66570, "name": "STARLINK-35834", "group": "last-30-days", "lat": -32.7486777045614, "lon": 79.93417061547011, "alt_km": 417.1131618355621, "timestamp": "2025-12-12T07:43:19.258064+00:00", "meta": {"OBJECT_NAME": "STARLINK-35834", "OBJECT_ID": "2025-268P", "EPOCH": "2025-12-11T20:00:01.999872", "MEAN_MOTION": 15.50525681, "ECCENTRICITY": 0.00015349, "INCLINATION": 43.0003, "RA_OF_ASC_NODE": 126.4391, "ARG_OF_PERICENTER": 269.8103, "MEAN_ANOMALY": 188.2637, "EPHEMERIS_TYPE": 0, "CLASSIFICATION_TYPE": "U", "NORAD_CAT_ID": 66570, "ELEMENT_SET_NO": 999, "REV_AT_EPOCH": 452, "BSTAR": 0.0005488984, "MEAN_MOTION_DOT": 0.0003193, "MEAN_MOTION_DDOT": 0}, "tle": {"line1": "1 66570U 25268P   25345.83335648  .00031930  00000+0  54890-3 0  9990", "line2": "2 66570  43.0003 126.4391 0001534 269.8103 188.2637 15.50525681  4528"}}, "geometry": {"type": "Point", "coordinates": [79.93417061547011, -32.7486777045614]}}, {"type": "Feature", "properties": {"norad_id": 66571, "name": "STARLINK-35836", "group": "last-30-days", "lat": -31.787544935451812, "lon": 81.89108784385897, "alt_km": 416.9763391059969, "timestamp": "2025-12-12T07:43:19.258078+00:00", "meta": {"OBJECT_NAME": "STARLINK-35836", "OBJECT_ID": "2025-268Q", "EPOCH": "2025-12-11T20:00:01.999872", "MEAN_MOTION": 15.5052395, "ECCENTRICITY": 0.00016823, "INCLINATION": 43.0002, "RA_OF_ASC_NODE": 126.4341, "ARG_OF_PERICENTER": 272.1232, "MEAN_ANOMALY": 187.8732, "EPHEMERIS_TYPE": 0, "CLASSIFICATION_TYPE": "U", "NORAD_CAT_ID": 66571, "ELEMENT_SET_NO": 999, "REV_AT_EPOCH": 452, "BSTAR": 0.00053416247, "MEAN_MOTION_DOT": 0.00031058, "MEAN_MOTION_DDOT": 0}, "tle": {"line1": "1 66571U 25268Q   25345.83335648  .00031058  00000+0  53416-3 0  9995", "line2": "2 66571  43.0002 126.4341 0001682 272.1232 187.8732 15.50523950  4525"}}, "geometry": {"type": "Point", "coordinates": [81.89108784385897, -31.787544935451812]}}, {"type": "Feature", "properties": {"norad_id": 66572, "name": "STARLINK-35870", "group": "last-30-days", "lat": -30.799121291717363, "lon": 83.80460490613433, "alt_km": 416.9364332235891, "timestamp": "2025-12-12T07:43:19.258088+00:00", "meta": {"OBJECT_NAME": "STARLINK-35870", "OBJECT_ID": "2025-268R", "EPOCH": "2025-12-11T20:00:01.999872", "MEAN_MOTION": 15.50521996, "ECCENTRICITY": 0.00016086, "INCLINATION": 43.0002, "RA_OF_ASC_NODE": 126.4306, "ARG_OF_PERICENTER": 275.6429, "MEAN_ANOMALY": 186.2702, "EPHEMERIS_TYPE": 0, "CLASSIFICATION_TYPE": "U", "NORAD_CAT_ID": 66572, "ELEMENT_SET_NO": 999, "REV_AT_EPOCH": 452, "BSTAR": 0.00059473167, "MEAN_MOTION_DOT": 0.00034632, "MEAN_MOTION_DDOT": 0}, "tle": {"line1": "1 66572U 25268R   25345.83335648  .00034632  00000+0  59473-3 0  9996", "line2": "2 66572  43.0002 126.4306 0001608 275.6429 186.2702 15.50521996  4529"}}, "geometry": {"type": "Point", "coordinates": [83.80460490613433, -30.799121291717363]}}, {"type": "Feature", "properties": {"norad_id": 66573, "name": "STARLINK-35650", "group": "last-30-days", "lat": -29.778716753507084, "lon": 85.68369291941869, "alt_km": 416.7458237581459, "timestamp": "2025-12-12T07:43:19.258099+00:00", "meta": {"OBJECT_NAME": "STARLINK-35650", "OBJECT_ID": "2025-268S", "EPOCH": "2025-12-11T20:00:01.999872", "MEAN_MOTION": 15.5053305, "ECCENTRICITY": 0.00019653, "INCLINATION": 43.0002, "RA_OF_ASC_NODE": 126.4244, "ARG_OF_PERICENTER": 271.9407, "MEAN_ANOMALY": 191.8833, "EPHEMERIS_TYPE": 0, "CLASSIFICATION_TYPE": "U", "NORAD_CAT_ID": 66573, "ELEMENT_SET_NO": 999, "REV_AT_EPOCH": 452, "BSTAR": 0.00037641283, "MEAN_MOTION_DOT": 0.00021766, "MEAN_MOTION_DDOT": 0}, "tle": {"line1": "1 66573U 25268S   25345.83335648  .00021766  00000+0  37641-3 0  9994", "line2": "2 66573  43.0002 126.4244 0001965 271.9407 191.8833 15.50533050  4523"}}, "geometry": {"type": "Point", "coordinates": [85.68369291941869, -29.778716753507084]}}, {"type": "Feature", "properties": {"norad_id": 66574, "name": "STARLINK-35812", "group": "last-30-days", "lat": -28.736767134687728, "lon": 87.51787480182702, "alt_km": 416.99180051307485, "timestamp": "2025-12-12T07:43:19.258111+00:00", "meta": {"OBJECT_NAME": "STARLINK-35812", "OBJECT_ID": "2025-268T", "EPOCH": "2025-12-11T20:00:01.999872", "MEAN_MOTION": 15.50550705, "ECCENTRICITY": 0.00015399, "INCLINATION": 43.0002, "RA_OF_ASC_NODE": 126.4198, "ARG_OF_PERICENTER": 272.8522, "MEAN_ANOMALY": 192.8973, "EPHEMERIS_TYPE": 0, "CLASSIFICATION_TYPE": "U", "NORAD_CAT_ID": 66574, "ELEMENT_SET_NO": 999, "REV_AT_EPOCH": 452, "BSTAR": -0.0003990336, "MEAN_MOTION_DOT": -0.00023657, "MEAN_MOTION_DDOT": 0}, "tle": {"line1": "1 66574U 25268T   25345.83335648 -.00023657  00000+0 -39903-3 0  9991", "line2": "2 66574  43.0002 126.4198 0001539 272.8522 192.8973 15.50550705  4529"}}, "geometry": {"type": "Point", "coordinates": [87.51787480182702, -28.736767134687728]}}, {"type": "Feature", "properties": {"norad_id": 66575, "name": "STARLINK-35810", "group": "last-30-days", "lat": -27.66766088135646, "lon": 89.3196101862498, "alt_km": 416.91565983931287, "timestamp": "2025-12-12T07:43:19.258121+00:00", "meta": {"OBJECT_NAME": "STARLINK-35810", "OBJECT_ID": "2025-268U", "EPOCH": "2025-12-11T20:00:01.999872", "MEAN_MOTION": 15.50550963, "ECCENTRICITY": 0.00015703, "INCLINATION": 43.0002, "RA_OF_ASC_NODE": 126.4149, "ARG_OF_PERICENTER": 274.4963, "MEAN_ANOMALY": 193.1754, "EPHEMERIS_TYPE": 0, "CLASSIFICATION_TYPE": "U", "NORAD_CAT_ID": 66575, "ELEMENT_SET_NO": 999, "REV_AT_EPOCH": 452, "BSTAR": -0.00046291265, "MEAN_MOTION_DOT": -0.00027377, "MEAN_MOTION_DDOT": 0}, "tle": {"line1": "1 66575U 25268U   25345.83335648 -.00027377  00000+0 -46291-3 0  9993", "line2": "2 66575  43.0002 126.4149 0001570 274.4963 193.1754 15.50550963  4525"}}, "geometry": {"type": "Point", "coordinates": [89.3196101862498, -27.66766088135646]}}, {"type": "Feature", "properties": {"norad_id": 66576, "name": "STARLINK-35814", "group": "last-30-days", "lat": -26.578476936875752, "lon": 91.08158882599045, "alt_km": 416.8839320286788, "timestamp": "2025-12-12T07:43:19.258131+00:00", "meta": {"OBJECT_NAME": "STARLINK-35814", "OBJECT_ID": "2025-268V", "EPOCH": "2025-12-11T20:00:01.999872", "MEAN_MOTION": 15.50548507, "ECCENTRICITY": 0.00015207, "INCLINATION": 43.0003, "RA_OF_ASC_NODE": 126.4101, "ARG_OF_PERICENTER": 273.421, "MEAN_ANOMALY": 196.1621, "EPHEMERIS_TYPE": 0, "CLASSIFICATION_TYPE": "U", "NORAD_CAT_ID": 66576, "ELEMENT_SET_NO": 999, "REV_AT_EPOCH": 452, "BSTAR": -0.00031698033, "MEAN_MOTION_DOT": -0.00018872, "MEAN_MOTION_DDOT": 0}, "tle": {"line1": "1 66576U 25268V   25345.83335648 -.00018872  00000+0 -31698-3 0  9999", "line2": "2 66576  43.0003 126.4101 0001520 273.4210 196.1621 15.50548507  4521"}}, "geometry": {"type": "Point", "coordinates": [91.08158882599045, -26.578476936875752]}}, {"type": "Feature", "properties": {"norad_id": 66577, "name": "STARLINK-35815", "group": "last-30-days", "lat": -25.463277688126617, "lon": 92.81683610568018, "alt_km": 416.68938724897, "timestamp": "2025-12-12T07:43:19.258143+00:00", "meta": {"OBJECT_NAME": "STARLINK-35815", "OBJECT_ID": "2025-268W", "EPOCH": "2025-12-11T20:00:01.999872", "MEAN_MOTION": 15.50532543, "ECCENTRICITY": 0.0001625, "INCLINATION": 43.0003, "RA_OF_ASC_NODE": 126.4052, "ARG_OF_PERICENTER": 278.2473, "MEAN_ANOMALY": 193.2646, "EPHEMERIS_TYPE": 0, "CLASSIFICATION_TYPE": "U", "NORAD_CAT_ID": 66577, "ELEMENT_SET_NO": 999, "REV_AT_EPOCH": 452, "BSTAR": 0.00011461687, "MEAN_MOTION_DOT": 6.377e-05, "MEAN_MOTION_DDOT": 0}, "tle": {"line1": "1 66577U 25268W   25345.83335648  .00006377  00000+0  11462-3 0  9992", "line2": "2 66577  43.0003 126.4052 0001625 278.2473 193.2646 15.50532543  4525"}}, "geometry": {"type": "Point", "coordinates": [92.81683610568018, -25.463277688126617]}}]}